ONEWEB-0331             
1 49198U 21083N   25039.57182176  .00000028  00000+0  37731-4 0  9995
2 49198  87.9055  73.6341 0001748  85.8541 274.2791 13.18686220164956
ONEWEB-0333             
1 49199U 21083P   25039.58585561  .00000298  00000+0  78085-3 0  9997
2 49199  87.8881  58.3999 0001901  94.1097 266.0250 13.13470672166118
ONEWEB-0334             
1 49200U 21083Q   25039.48636186  .00000070  00000+0  14355-3 0  9997
2 49200  87.9275  12.6967 0002161 109.5762 250.5604 13.19205643171629
ONEWEB-0335             
1 49201U 21083R   25039.58109625  .00000383  00000+0  10133-2 0  9998
2 49201  87.8881  58.3894 0001618  85.3094 274.8220 13.13470654166125
ONEWEB-0336             
1 49202U 21083S   25039.55093498 -.00000065  00000+0 -21363-3 0  9993
2 49202  87.8879  58.3894 0001494  95.6655 264.4645 13.13471492167412
ONEWEB-0337             
1 49203U 21083T   25039.56032536  .00000228  00000+0  58835-3 0  9994
2 49203  87.8881  58.3858 0001880  86.2651 273.8693 13.13471489167410
ONEWEB-0338             
1 49204U 21083U   25039.48604150  .00000103  00000+0  22236-3 0  9991
2 49204  87.9281  12.6909 0002108  93.4719 266.6656 13.20773282171648
ONEWEB-0339             
1 49205U 21083V   25039.57155767  .00000149  00000+0  37332-3 0  9990
2 49205  87.8879  58.3746 0001974  88.7903 271.3452 13.13471899166090
